{
    "CCSDS_OMM_VERS": "3.0",
    "COMMENT": "GENERATED VIA SPACE-TRACK.ORG API",
    "CREATION_DATE": "2025-11-22T22:56:46",
    "ORIGINATOR": "18 SPCS",
    "OBJECT_NAME": "BD-18",
    "OBJECT_ID": "2015-037A",
    "CENTER_NAME": "EARTH",
    "REF_FRAME": "TEME",
    "TIME_SYSTEM": "UTC",
    "MEAN_ELEMENT_THEORY": "SGP4",
    "EPOCH": "2025-11-22T01:26:15.887904",
    "MEAN_MOTION": "1.86229239",
    "ECCENTRICITY": "0.00126690",
    "INCLINATION": "55.0571",
    "RA_OF_ASC_NODE": "309.1739",
    "ARG_OF_PERICENTER": "265.5048",
    "MEAN_ANOMALY": "94.3419",
    "EPHEMERIS_TYPE": "0",
    "CLASSIFICATION_TYPE": "U",
    "NORAD_CAT_ID": "40748",
    "ELEMENT_SET_NO": "999",
    "REV_AT_EPOCH": "7026",
    "BSTAR": "0.00000000000000",
    "MEAN_MOTION_DOT": "-0.00000061",
    "MEAN_MOTION_DDOT": "0.0000000000000",
    "SEMIMAJOR_AXIS": "27906.364",
    "PERIOD": "773.241",
    "APOAPSIS": "21563.584",
    "PERIAPSIS": "21492.875",
    "OBJECT_TYPE": "PAYLOAD",
    "RCS_SIZE": "LARGE",
    "COUNTRY_CODE": "PRC",
    "LAUNCH_DATE": "2015-07-25",
    "SITE": "XSC",
    "DECAY_DATE": null,
    "FILE": "4894353",
    "GP_ID": "303272167",
    "TLE_LINE0": "0 BD-18",
    "TLE_LINE1": "1 40748U 15037A   25326.05990611 -.00000061  00000-0  00000+0 0  9995",
    "TLE_LINE2": "2 40748  55.0571 309.1739 0012669 265.5048  94.3419  1.86229239 70261"
}